[{"OBJECT_NAME":"STARLINK-4505","OBJECT_ID":"2022-101AF","EPOCH":"2026-03-09T23:35:19.635360","MEAN_MOTION":15.08841872,"ECCENTRICITY":0.00013518,"INCLINATION":53.2169,"RA_OF_ASC_NODE":62.8018,"ARG_OF_PERICENTER":88.6158,"MEAN_ANOMALY":271.4989,"EPHEMERIS_TYPE":0,"CLASSIFICATION_TYPE":"U","NORAD_CAT_ID":53556,"ELEMENT_SET_NO":999,"REV_AT_EPOCH":19635,"BSTAR":2.8362219e-5,"MEAN_MOTION_DOT":1.64e-6,"MEAN_MOTION_DDOT":0},{"OBJECT_NAME":"LEMUR-2-KREMPEL-BRO1","OBJECT_ID":"2025-061G","EPOCH":"2026-03-09T22:19:45.751296","MEAN_MOTION":15.13773226,"ECCENTRICITY":0.0017497,"INCLINATION":97.5535,"RA_OF_ASC_NODE":45.5283,"ARG_OF_PERICENTER":227.946,"MEAN_ANOMALY":132.0284,"EPHEMERIS_TYPE":0,"CLASSIFICATION_TYPE":"U","NORAD_CAT_ID":63357,"ELEMENT_SET_NO":999,"REV_AT_EPOCH":5261,"BSTAR":0.00031891713,"MEAN_MOTION_DOT":5.707e-5,"MEAN_MOTION_DDOT":0}]
